start=new Date('2022-08-10T00:00:00.000Z').valueOf();
sats=[{"PERIAPSIS":"501.480","REF_FRAME":"TEME","APOAPSIS":"503.409","MEAN_MOTION_DDOT":"0.0000000000000","MEAN_ANOMALY":"221.8507","BSTAR":"-0.05447800000000","PERIOD":"94.667","DECAY_DATE":null,"OBJECT_TYPE":"PAYLOAD","FILE":"3533086","CLASSIFICATION_TYPE":"U","GP_ID":"209906604","OBJECT_ID":"2022-062G","COUNTRY_CODE":"US","EPHEMERIS_TYPE":"0","ECCENTRICITY":"0.00014020","CENTER_NAME":"EARTH","RA_OF_ASC_NODE":"145.1676","INCLINATION":"53.2174","REV_AT_EPOCH":"834","SITE":"AFETR","RCS_SIZE":"LARGE","MEAN_MOTION_DOT":"-0.01133644","TIME_SYSTEM":"UTC","ARG_OF_PERICENTER":"62.6564","MEAN_MOTION":"15.21126227","MEAN_ELEMENT_THEORY":"SGP4","OBJECT_NAME":"STARLINK-4043","SEMIMAJOR_AXIS":"6880.579","TLE_LINE2":"2 52836  53.2174 145.1676 0001402  62.6564 221.8507 15.21126227  8343","LAUNCH_DATE":"2022-06-17","ELEMENT_SET_NO":"999","EPOCH":"2022-08-09T22:00:00.999936","TLE_LINE1":"1 52836U 22062G   22221.91667824 -.01133644  00000-0 -54478-1 0  9991","NORAD_CAT_ID":"52836"},{"FILE":"3533123","EPHEMERIS_TYPE":"0","COUNTRY_CODE":"US","OBJECT_ID":"2022-062H","CLASSIFICATION_TYPE":"U","GP_ID":"209931862","ECCENTRICITY":"0.00017000","CENTER_NAME":"EARTH","RA_OF_ASC_NODE":"145.1760","REF_FRAME":"TEME","APOAPSIS":"501.771","PERIAPSIS":"499.433","MEAN_ANOMALY":"273.5659","BSTAR":"-0.05356000000000","MEAN_MOTION_DDOT":"0.0000000000000","PERIOD":"94.629","OBJECT_TYPE":"PAYLOAD","DECAY_DATE":null,"MEAN_MOTION":"15.21737359","MEAN_ELEMENT_THEORY":"SGP4","OBJECT_NAME":"STARLINK-4036","ARG_OF_PERICENTER":"39.4486","SEMIMAJOR_AXIS":"6878.737","TLE_LINE2":"2 52837  53.2174 145.1760 0001700  39.4486 273.5659 15.21737359  1309","ELEMENT_SET_NO":"999","LAUNCH_DATE":"2022-06-17","EPOCH":"2022-08-09T22:00:00.999936","TLE_LINE1":"1 52837U 22062H   22221.91667824 -.01134812  00000-0 -53560-1 0  9991","NORAD_CAT_ID":"52837","INCLINATION":"53.2174","REV_AT_EPOCH":"130","RCS_SIZE":"LARGE","SITE":"AFETR","TIME_SYSTEM":"UTC","MEAN_MOTION_DOT":"-0.01134812"},{"ARG_OF_PERICENTER":"95.4820","MEAN_MOTION":"15.21353755","MEAN_ELEMENT_THEORY":"SGP4","OBJECT_NAME":"STARLINK-4092","SEMIMAJOR_AXIS":"6879.893","TLE_LINE2":"2 52838  53.2174 145.1708 0001284  95.4820 199.6096 15.21353755  1300","LAUNCH_DATE":"2022-06-17","ELEMENT_SET_NO":"999","EPOCH":"2022-08-09T22:00:00.999936","NORAD_CAT_ID":"52838","TLE_LINE1":"1 52838U 22062J   22221.91667824 -.01133942  00000-0 -54130-1 0  9999","REV_AT_EPOCH":"130","INCLINATION":"53.2174","SITE":"AFETR","RCS_SIZE":"LARGE","MEAN_MOTION_DOT":"-0.01133942","TIME_SYSTEM":"UTC","FILE":"3533123","CLASSIFICATION_TYPE":"U","GP_ID":"209932515","OBJECT_ID":"2022-062J","COUNTRY_CODE":"US","EPHEMERIS_TYPE":"0","ECCENTRICITY":"0.00012840","CENTER_NAME":"EARTH","RA_OF_ASC_NODE":"145.1708","PERIAPSIS":"500.875","REF_FRAME":"TEME","APOAPSIS":"502.642","MEAN_MOTION_DDOT":"0.0000000000000","MEAN_ANOMALY":"199.6096","BSTAR":"-0.05413000000000","PERIOD":"94.653","DECAY_DATE":null,"OBJECT_TYPE":"PAYLOAD"},{"DECAY_DATE":null,"OBJECT_TYPE":"PAYLOAD","PERIOD":"94.590","MEAN_MOTION_DDOT":"0.0000000000000","BSTAR":"-0.05263100000000","MEAN_ANOMALY":"296.9721","PERIAPSIS":"497.652","APOAPSIS":"499.788","REF_FRAME":"TEME","RA_OF_ASC_NODE":"145.1845","CENTER_NAME":"EARTH","ECCENTRICITY":"0.00015530","GP_ID":"209931731","CLASSIFICATION_TYPE":"U","OBJECT_ID":"2022-062K","COUNTRY_CODE":"US","EPHEMERIS_TYPE":"0","FILE":"3533123","MEAN_MOTION_DOT":"-0.01135859","TIME_SYSTEM":"UTC","SITE":"AFETR","RCS_SIZE":"LARGE","REV_AT_EPOCH":"130","INCLINATION":"53.2175","NORAD_CAT_ID":"52839","TLE_LINE1":"1 52839U 22062K   22221.91667824 -.01135859  00000-0 -52631-1 0  9993","EPOCH":"2022-08-09T22:00:00.999936","LAUNCH_DATE":"2022-06-17","ELEMENT_SET_NO":"999","TLE_LINE2":"2 52839  53.2175 145.1845 0001553  43.7157 296.9721 15.22362114  1308","SEMIMAJOR_AXIS":"6876.855","ARG_OF_PERICENTER":"43.7157","OBJECT_NAME":"STARLINK-4048","MEAN_ELEMENT_THEORY":"SGP4","MEAN_MOTION":"15.22362114"},{"ARG_OF_PERICENTER":"69.4024","MEAN_MOTION":"15.22049512","MEAN_ELEMENT_THEORY":"SGP4","OBJECT_NAME":"STARLINK-4049","SEMIMAJOR_AXIS":"6877.796","TLE_LINE2":"2 52840  53.2175 145.1802 0001265  69.4024 257.5216 15.22049512  8843","ELEMENT_SET_NO":"999","LAUNCH_DATE":"2022-06-17","EPOCH":"2022-08-09T22:00:00.999936","NORAD_CAT_ID":"52840","TLE_LINE1":"1 52840U 22062L   22221.91667824 -.01134905  00000-0 -53076-1 0  9990","INCLINATION":"53.2175","REV_AT_EPOCH":"884","SITE":"AFETR","RCS_SIZE":"LARGE","MEAN_MOTION_DOT":"-0.01134905","TIME_SYSTEM":"UTC","FILE":"3533097","CLASSIFICATION_TYPE":"U","GP_ID":"209906609","COUNTRY_CODE":"US","EPHEMERIS_TYPE":"0","OBJECT_ID":"2022-062L","ECCENTRICITY":"0.00012650","CENTER_NAME":"EARTH","RA_OF_ASC_NODE":"145.1802","PERIAPSIS":"498.791","REF_FRAME":"TEME","APOAPSIS":"500.532","MEAN_MOTION_DDOT":"0.0000000000000","MEAN_ANOMALY":"257.5216","BSTAR":"-0.05307600000000","PERIOD":"94.609","DECAY_DATE":null,"OBJECT_TYPE":"PAYLOAD"},{"EPOCH":"2022-08-09T22:00:00.999936","NORAD_CAT_ID":"52841","TLE_LINE1":"1 52841U 22062M   22221.91667824 -.01137300  00000-0 -51253-1 0  9998","TLE_LINE2":"2 52841  53.2176 145.1967 0001532  43.8401 337.2660 15.23299096  1307","ELEMENT_SET_NO":"999","LAUNCH_DATE":"2022-06-17","SEMIMAJOR_AXIS":"6874.035","ARG_OF_PERICENTER":"43.8401","MEAN_MOTION":"15.23299096","MEAN_ELEMENT_THEORY":"SGP4","OBJECT_NAME":"STARLINK-4065","MEAN_MOTION_DOT":"-0.01137300","TIME_SYSTEM":"UTC","SITE":"AFETR","RCS_SIZE":"LARGE","INCLINATION":"53.2176","REV_AT_EPOCH":"130","RA_OF_ASC_NODE":"145.1967","ECCENTRICITY":"0.00015320","CENTER_NAME":"EARTH","GP_ID":"209932260","CLASSIFICATION_TYPE":"U","COUNTRY_CODE":"US","OBJECT_ID":"2022-062M","EPHEMERIS_TYPE":"0","FILE":"3533123","DECAY_DATE":null,"OBJECT_TYPE":"PAYLOAD","PERIOD":"94.532","MEAN_MOTION_DDOT":"0.0000000000000","MEAN_ANOMALY":"337.2660","BSTAR":"-0.05125300000000","PERIAPSIS":"494.847","REF_FRAME":"TEME","APOAPSIS":"496.953"},{"DECAY_DATE":null,"OBJECT_TYPE":"PAYLOAD","PERIOD":"94.648","MEAN_MOTION_DDOT":"0.0000000000000","BSTAR":"-0.05401900000000","MEAN_ANOMALY":"236.0481","PERIAPSIS":"500.603","APOAPSIS":"502.485","REF_FRAME":"TEME","RA_OF_ASC_NODE":"145.1715","CENTER_NAME":"EARTH","ECCENTRICITY":"0.00013680","GP_ID":"209906859","CLASSIFICATION_TYPE":"U","OBJECT_ID":"2022-062N","COUNTRY_CODE":"US","EPHEMERIS_TYPE":"0","FILE":"3533097","MEAN_MOTION_DOT":"-0.01134006","TIME_SYSTEM":"UTC","SITE":"AFETR","RCS_SIZE":"LARGE","REV_AT_EPOCH":"884","INCLINATION":"53.2174","TLE_LINE1":"1 52842U 22062N   22221.91667824 -.01134006  00000-0 -54019-1 0  9992","NORAD_CAT_ID":"52842","EPOCH":"2022-08-09T22:00:00.999936","ELEMENT_SET_NO":"999","LAUNCH_DATE":"2022-06-17","TLE_LINE2":"2 52842  53.2174 145.1715 0001368  62.9115 236.0481 15.21424822  8846","SEMIMAJOR_AXIS":"6879.679","ARG_OF_PERICENTER":"62.9115","OBJECT_NAME":"STARLINK-4046","MEAN_MOTION":"15.21424822","MEAN_ELEMENT_THEORY":"SGP4"},{"PERIOD":"94.493","OBJECT_TYPE":"PAYLOAD","DECAY_DATE":null,"REF_FRAME":"TEME","APOAPSIS":"495.120","PERIAPSIS":"492.924","MEAN_ANOMALY":"5.4164","BSTAR":"-0.05032500000000","MEAN_MOTION_DDOT":"0.0000000000000","ECCENTRICITY":"0.00015980","CENTER_NAME":"EARTH","RA_OF_ASC_NODE":"145.2043","FILE":"3533123","OBJECT_ID":"2022-062P","COUNTRY_CODE":"US","EPHEMERIS_TYPE":"0","CLASSIFICATION_TYPE":"U","GP_ID":"209932130","TIME_SYSTEM":"UTC","MEAN_MOTION_DOT":"-0.01137742","REV_AT_EPOCH":"130","INCLINATION":"53.2177","RCS_SIZE":"LARGE","SITE":"AFETR","TLE_LINE2":"2 52843  53.2177 145.2043 0001598  41.9075   5.4164 15.23923432  1305","ELEMENT_SET_NO":"999","LAUNCH_DATE":"2022-06-17","EPOCH":"2022-08-09T22:00:00.999936","NORAD_CAT_ID":"52843","TLE_LINE1":"1 52843U 22062P   22221.91667824 -.01137742  00000-0 -50325-1 0  9999","MEAN_MOTION":"15.23923432","MEAN_ELEMENT_THEORY":"SGP4","OBJECT_NAME":"STARLINK-4188","ARG_OF_PERICENTER":"41.9075","SEMIMAJOR_AXIS":"6872.157"},{"RA_OF_ASC_NODE":"145.1886","CENTER_NAME":"EARTH","ECCENTRICITY":"0.00014330","COUNTRY_CODE":"US","EPHEMERIS_TYPE":"0","OBJECT_ID":"2022-062Q","GP_ID":"209932391","CLASSIFICATION_TYPE":"U","FILE":"3533123","OBJECT_TYPE":"PAYLOAD","DECAY_DATE":null,"PERIOD":"94.570","BSTAR":"-0.05216800000000","MEAN_ANOMALY":"304.6860","MEAN_MOTION_DDOT":"0.0000000000000","APOAPSIS":"498.765","REF_FRAME":"TEME","PERIAPSIS":"496.794","TLE_LINE1":"1 52844U 22062Q   22221.91667824 -.01136307  00000-0 -52168-1 0  9993","NORAD_CAT_ID":"52844","EPOCH":"2022-08-09T22:00:00.999936","ELEMENT_SET_NO":"999","LAUNCH_DATE":"2022-06-17","TLE_LINE2":"2 52844  53.2176 145.1886 0001433  49.6201 304.6860 15.22674449  1300","SEMIMAJOR_AXIS":"6875.915","OBJECT_NAME":"STARLINK-4208","MEAN_MOTION":"15.22674449","MEAN_ELEMENT_THEORY":"SGP4","ARG_OF_PERICENTER":"49.6201","TIME_SYSTEM":"UTC","MEAN_MOTION_DOT":"-0.01136307","RCS_SIZE":"LARGE","SITE":"AFETR","REV_AT_EPOCH":"130","INCLINATION":"53.2176"},{"EPOCH":"2022-08-09T22:00:00.999936","NORAD_CAT_ID":"52845","TLE_LINE1":"1 52845U 22062R   22221.91667824 -.01137789  00000-0 -49982-1 0  9999","TLE_LINE2":"2 52845  53.2177 145.2069 0001934  31.0202  25.9385 15.24150754  1303","ELEMENT_SET_NO":"999","LAUNCH_DATE":"2022-06-17","SEMIMAJOR_AXIS":"6871.474","MEAN_MOTION":"15.24150754","MEAN_ELEMENT_THEORY":"SGP4","OBJECT_NAME":"STARLINK-4168","ARG_OF_PERICENTER":"31.0202","TIME_SYSTEM":"UTC","MEAN_MOTION_DOT":"-0.01137789","RCS_SIZE":"LARGE","SITE":"AFETR","INCLINATION":"53.2177","REV_AT_EPOCH":"130","RA_OF_ASC_NODE":"145.2069","ECCENTRICITY":"0.00019340","CENTER_NAME":"EARTH","COUNTRY_CODE":"US","EPHEMERIS_TYPE":"0","OBJECT_ID":"2022-062R","GP_ID":"209931863","CLASSIFICATION_TYPE":"U","FILE":"3533123","OBJECT_TYPE":"PAYLOAD","DECAY_DATE":null,"PERIOD":"94.479","MEAN_ANOMALY":"25.9385","BSTAR":"-0.04998200000000","MEAN_MOTION_DDOT":"0.0000000000000","REF_FRAME":"TEME","APOAPSIS":"494.668","PERIAPSIS":"492.010"}];
